ID,LAT,LON,TIPOLOGIA,name,LEGALE_RA,UBICAZIONE,City,FOGLIO,PARTICELLA,Country,SUB,POSTI LETTO,DATA INIZIO ATTIVITA'
278,40.7259988,16.5756483,Bed & Breakfast,ANGOLO FELICE,REGA FRANCESCO,via Ungheria 8,Matera,14,1060,Italy,1,6,40812
279,40.665452,16.6101048,Bed & Breakfast,BELVEDERE,RITELLA ANTONIA,arco del sedile 4,Matera,159,1498,Italy,18,2,41061
280,40.666178,16.6109311,Bed & Breakfast,DEL CASTELVECCHIO,CORETTI FRANCESCO,salita castelvecchio 23,Matera,159,1533,Italy,7,8,41045
281,40.658884,16.592437,Bed & Breakfast,VILLA NICK HOUSE,MANICONE NICOLA,C.DA POZZO MISSEO,Matera,100,763,Italy,1,4,40721
282,40.666601,16.608135,Bed & Breakfast,FIORENTINI,LOGALLO GIOVANNI,via Fiorentini 14,Matera,159,2974,Italy,12,4,41486
283,40.6419824,16.6227369,Bed & Breakfast,HOME SWEET HOME,BRUNO VINCENZO,via dell'Ariete 1,Matera,114,722,Italy,6,3,41408
284,40.6572151,16.6124274,Bed & Breakfast,I TRE FIORI,PEPE ANGELA,via fosse ardeatine 4,Matera,103,818,Italy,9,5,40612
285,40.6645267,16.610666,Bed & Breakfast,IL CORTILE,DONATELLA ACITO,via San Pietro Caveoso 55,Matera,159,1470,Italy,4,8,39913
286,40.668078,16.6052844,Bed & Breakfast,LUCANA 22,ANGELO CATOGGIO,VIA LUCANA 22,Matera,159,3765,Italy,12,6,42340
287,40.6763994,16.5732106,Bed & Breakfast,MATERA,EMANUELE MONTEMURRO,via del Commercio,Matera,67,2052,Italy,9,4,41421
288,40.6669025,16.6045068,Bed & Breakfast,SANTA MARTA,CARBONE MARIA,via  Lucana 53,Matera,159,2710,Italy,17,4,40379
289,40.6669499,16.6101862,Bed & Breakfast,TRE CORONE,MARIA TORELLI,Via Sette Dolori 2,Matera,159,737,Italy,,2,41351
290,40.6440597,16.6223163,Bed & Breakfast,VILLA ROSSANA,DI PEDE MASSIMILIANO,via columella 10,Matera,106,288,Italy,2,6,40392
291,40.7096401,16.4864765,Bed & Breakfast,AL BORGHETTO,LAMACCHIA FRANCESCO,BORGO  PICCIANO A,Matera,23,59,Italy,,2,42430
292,40.6665076,16.6113147,Bed & Breakfast,AL CAMPANILE,SINNO PATRIZIA,VIA RISCATTO 7,Matera,159,1137,Italy,22,4,42534
293,40.6635375,16.6075749,Bed & Breakfast,AL CASTELLO,MELODIA FRANCESCA,VIA LANERA 5,Matera,103,252,Italy,4,7,42299
294,40.6642679,16.6036248,Bed & Breakfast,AL CENTRO B&B,BUONO FRANCESCO PAOLO,VIA GRAMSCI 27,Matera,101,218,Italy,12,6,42357
295,40.663392,16.6113458,Bed & Breakfast,AL CONVENTO,MONTEMURRO VINCENZO E.,via Purgatorio Vecchio 3,Matera,159,2101,Italy,3,4,39744
296,40.661369,16.6108069,Bed & Breakfast,AL VECCHIO MULINO,MUSOLINO FABIO,via lucana 205/B,Matera,159,5331,Italy,48,8,42857
297,40.6572151,16.6124274,Bed & Breakfast,ALESSANDRO B&B,ALESSANDRO MONTEMURRO,VIA FOSSE ARDEATINE 7,Matera,103,1046,Italy,18,3,42466
298,40.6662804,16.6062283,Bed & Breakfast,AMADEUS LUXURY HOME,CONTEROSITO FEDERICA,VIA A. PERSIO 2,Matera,159,2707,Italy,18,3,42607
299,40.6901477,16.5814859,Bed & Breakfast,AMARANTO B&B,ANTONIO MARAGNO,VIA CADUTI NASSIRIA 139,Matera,28,1117,Italy,1,6,42465
300,40.6734,16.60121,Bed & Breakfast,AURORA,AULETTA MARIA AURORA,VIA GUGLIELMO MARCONI 13,Matera,159,4882,Italy,7,3,42153
301,40.6710809,16.5957062,Bed & Breakfast,B & B DELL'ANGELO,DI CUIA ANGELA SAVERIA,C.DA PEDALE DELLA PALOMBA,Matera,53,392,Italy,,,42577
302,40.68490445,16.58722994,Bed & Breakfast,VILLA DEI PICENI,ANNA MARIA BERARDI,VIA DEI PICENI 20,Matera,51,517,Italy,5,2,39828
305,40.6490276,16.6252952,Bed & Breakfast,B&B AGNA,FIORE ANTONIO,CONTRADA AGNA SNC.,Matera,105,402,Italy,5,2,42199
306,40.6602956,16.6090475,Bed & Breakfast,B&B DON MILANI,CAVONE ROSALBA,VIA D.L. MILANI 10,Matera,103,797,Italy,9,4,42586
307,40.669989,16.60884,Bed & Breakfast,B&B PATA',TERESA LIONETTI,VIA SANTA CESAREA 10,Matera,159,171,Italy,5,2,42577
310,40.6710809,16.5957062,Bed & Breakfast,BEST VALUE,SINNO CARMINE,via Fratelli grimm 5,Matera,159,47,Italy,34,4,38391
311,40.6806036,16.5838406,Bed & Breakfast,BUON VENTO,FRANCESCO PAOLO NICOLETTI,VIA GRAVINA 7,Matera,68,1034,Italy,52,4,42367
312,40.6616999,16.6090141,Bed & Breakfast,CASA E BOTTEGA,ANDREA RIZZELLI,VIA CHIANCALATA 5,Matera,103,459,Italy,5,4,42338
313,40.66654,16.6116928,Bed & Breakfast,CASA LAMANNA,PROVINZANO ANTONIA,VIA SAN POTITO 43,Matera,159,1294,Italy,1,4,38572
314,40.6673746,16.6103511,Bed & Breakfast,CASA NEI SASSI,LIONETTI GIUSEPPE,VIA DEI FIORENTINI 72,Matera,159,891,Italy,1,6,42192
316,40.6715245,16.6065459,Bed & Breakfast,CONTE GATTINI,FRAMCESCO FESTA,VIA LAURA BATTISTA 2,Matera,159,3679,Italy,1,4,42431
317,40.6653869,16.606358,Bed & Breakfast,DA VINCI,VINCENZO FRASCELLA,VIA LUCANA 101,Matera,159,3966,Italy,5,6,42289
318,40.6686036,16.6021741,Bed & Breakfast,DANTE,BARBOSA CUTINO DANEXYS,VIA DANTE 5,Matera,71,377,Italy,30,3,42474
320,40.6686766,16.6059701,Bed & Breakfast,DEL CORSO,MICHELE GUARINI,VIA XXSETTEMBRE 39,Matera,159,4537,Italy,73,4,42093
321,40.665389,16.6114459,Bed & Breakfast,DELLA TORRE,MONTANARO ANNA MARIA,VIA MURO 26,Matera,,,Italy,,4,38016
322,40.69233962,16.59229993,Bed & Breakfast,B & B SERRITELLO LA VALLE,FRANCESCO P. MANICONE,C.DA SERRITELLOM LA VALLE,Matera,52,1242,Italy,7,6,42043
323,40.6663738,16.6075909,Bed & Breakfast,DOMUS DEL BARISANO,ANDRISANI FABIO,VIA LOMBARDI 16,Matera,,,Italy,,8,39190
324,40.6602956,16.6090475,Bed & Breakfast,DON MILANI,CAVONE ROSALBA,VIA DON L. MILANI 10,Matera,103,797,Italy,9,4,42586
326,40.6833836,16.5792271,Bed & Breakfast,EDONE',FRANCESCA TATARANNI,VIA CILEA 66,Matera,51,1451,Italy,15,4,42571
327,40.6744738,16.6017041,Bed & Breakfast,ELIZABETH,SALUZZI FRANCESCO,VIA UMBRIA 6,Matera,159,4845,Italy,12,4,42550
328,40.6632427,16.6123433,Bed & Breakfast,FOFO',RAFFAELE STIFANO,RIONE MALVE 67,Matera,159,2328,Italy,2,2,42264
329,40.6584495,16.6099328,Bed & Breakfast,FRANCARO',ROBERTO MARIA FRANCESCA,VIA MORELLI 1,Matera,103,519,Italy,7,2,39534
331,40.666601,16.608135,Bed & Breakfast,IL CAMINETTO,BATTENTE CONCETTA IMMACOLATA,via Fiorentini 52,Matera,159,527,Italy,3,2,39604
333,40.6756892,16.5742617,Bed & Breakfast,IL CRUSCO,DILEO NICLA,VIA DELL'AGRICOLTURA 8,Matera,67,3848,Italy,7,3,42976
336,40.6774682,16.5792931,Bed & Breakfast,IL MODERNO,FEDELE GIUDICEPIETRO,VIA COSENZA 70,Matera,67,1505,Italy,17,4,42437
337,40.66444,16.603387,Bed & Breakfast,IL PICCHIOLINO,MICHELE GROSSI,via Antonio Gramsci 20,Matera,71,302,Italy,14,3,42809
338,40.6663864,16.6067083,Bed & Breakfast,IL PONTICELLO AI SASSI,ANGELA DE SIMONE,VIA LOMBARDI 4,Matera,159,628,Italy,3,3,42409
339,40.6670941,16.6070503,Bed & Breakfast,IL PORTICO DEI SASSI,GURRADO BRUNA,VIA PENTASUGLIA 8,Matera,159,28,Italy,17,2,42509
341,40.6697833,16.6075564,Bed & Breakfast,IL RE DEGLI SCALZI,LAMACCHIA ANGELO,VIA F. PAOLO FESTA 10,Matera,159,3474,Italy,3,2,42538
342,40.6636504,16.6120014,Bed & Breakfast,IL SASSO E LA SETA,PAOLICELLI LUCIANA,RIONE MALVE 31,Matera,159,2198,Italy,3,5,41814
344,40.6550333,16.586422,Bed & Breakfast,IL VILLINO,BIAGIO PAOLICELLI,Cda . Pozzo Misseo,Matera,100,428,Italy,1,8,39115
348,40.6648188,16.6034347,Bed & Breakfast,LA CASA DI NINA,ANNA MIGLIO,VICO 2 PASSARELLI  2,Matera,71,323,Italy,16,4,42254
349,40.6676142,16.6041146,Bed & Breakfast,LA CASA DI ROSA,CINIERO VITO DOMENICO,via spine bianche 8,Matera,,,Italy,,4,42335
352,40.662352,16.597222,Bed & Breakfast,LA LOCANDA DI ZI NICOLA,RAUCCI GIUSEPPE,VIA ANNIBALE DI FRANCIA 9,Matera,14,349,Italy,1,6,42464
353,40.669989,16.60884,Bed & Breakfast,LA MANSARDA SUI SASSI,ANGELA FONTANAROSA,VIA SANTA CESAREA 36,Matera,159,47,Italy,42,3,42314
354,40.664793,16.611572,Bed & Breakfast,LA PIAZZETTA,RAMUNDO GIUSEPPINA,San Pietro Caveoso 8,Matera,,,Italy,,4,38937
356,40.6646524,16.6097362,Bed & Breakfast,L'ALBERO DI ELIANA,ELIANA VIGGIANI,GRADONI MUNICIPIO 14,Matera,159,1815,Italy,12,4,42679
357,40.662543,16.610435,Bed & Breakfast,LANDSCAPE SASSI MATERA,CATALDO MONTANARO,VIA CASALNUOVO 173,Matera,159,2496,Italy,,2,42353
358,40.67243,16.6013056,Bed & Breakfast,L'ANGOLINO,MARAGNO FRANCESCO PAOLO,VIA DELLA CROCE 43/1,Matera,71,857,Italy,13,2,39636
359,40.665985,16.610805,Bed & Breakfast,L'ANTICA CIVITA,GIUSEPPE SANTOCHIRICO,RECINTO CASTELVECCHIO 5,Matera,159,1522,Italy,4,4,42524
360,40.666087,16.609681,Bed & Breakfast,L'ARTURO,MONICA CELESTE LASCARO,VIA TRE CORONE  9/10,Matera,159,804,Italy,1,6,43118
361,40.6674503,16.6012834,Bed & Breakfast,L'ATTICO DEL CENTRO MATERA,IMMACOLATA NICOLETTI,VIALE ALDO MORO 10,Matera,71,1470,Italy,30,2,42409
362,40.6596574,16.6136478,Bed & Breakfast,LE ALI DI ANGELO,PAGLIEI ROSALIA,VIA LUCANA 282,Matera,103,338,Italy,,4,42207
363,40.646172,16.618913,Bed & Breakfast,LE SORBOLE,DUNI ANGELA RAFFAELLA,via Manicone 17,Matera,106,876,Italy,3,6,40221
365,40.6616204,16.607579,Bed & Breakfast,L'EDERA,TOMMASO FELICETTI,VIA CAROPRESO 10F,Matera,103,884,Italy,4,5,42503
366,40.642495,16.62292,Bed & Breakfast,LO SPEZIALE,VENTURA NICOLA,VIA DELL'ARIETE 13,Matera,114,854,Italy,5,3,42320
367,40.6659269,16.6074773,Bed & Breakfast,LO STRANIERO,D'AMBROSIO TERESA MARIA,VIA DEL CORSO 17BIS,Matera,159,2685,Italy,49,6,42184
368,40.668078,16.6052844,Bed & Breakfast,LUCANA 22,CATOGGIO ANGELO MARIA GIOVANNI,VIA LUCANA 22,Matera,159,3765,Italy,12,6,42340
369,40.669234,16.607573,Bed & Breakfast,MARGOT,D'ANZI MARGHERITA,VIA T. STIGLIANI 32,Matera,159,3453,Italy,23,8,42465
370,40.6628731,16.6081203,Bed & Breakfast,MARISOL,CHIRONNE MARIA ANTONIA,VIA P. VENA 74,Matera,103,655,Italy,5,4,42527
371,40.715046,16.516131,Bed & Breakfast,MASSERIA LA FIORITA,CASTORO GIUSEPPE,CONTRADA MARRONI  snc,Matera,24,398,Italy,10,4,42503
372,40.6591175,16.6147381,Bed & Breakfast,MATERA RESIDENCE,POMPILIO GAETANO,via lucana 295,Matera,159,4004,Italy,18,2,41935
373,40.6695783,16.5950964,Bed & Breakfast,MATERAPARTMENT,BITETTI ANNUNZIATA,VIA LAZAZZERA 30,Matera,71,2136,Italy,8,3,42228
374,40.666178,16.6109311,Bed & Breakfast,MATERA'S,TOMMASO MATTEI,SALITA CASTELVECCHIO 16 17 18,Matera,159,1529,Italy,16,4,42321
375,40.6752065,16.5859766,Bed & Breakfast,MEUCCI,TACCARDI MASSIMO,VIA MEUCCI 1,Matera,68,281,Italy,14,4,41291
376,40.6647072,16.6004856,Bed & breakfast,MISTY2D,DANIELIULIAN BLEAU,VIA CAPPELLUTI 47,Matera,71,449,Italy,1,5,42160
377,40.6657398,16.6115226,Bed & breakfast,NEI SASSI DA NINO,BENIGNO OLIVOPOTENZA,RECINTO CAVONE 2,Matera,159,1412,Italy,2,2,42531
379,40.6650298,16.6078366,Bed & Breakfast,NETTA,FLORIO MARIA CARMELA,VIA SCOTELLARO 5,Matera,159,2605,Italy,17,7,42838
381,40.6743411,16.5799202,Bed & Breakfast,ORIONE,BURDO ADDOLORATA,VIA SINNI 9,Matera,67,408,Italy,,3,42458
382,40.669989,16.60884,Bed & Breakfast,PATA',TERESA LIONETTI,VIA SANTA CESAREA 10,Matera,159,171,Italy,5,2,42577
383,40.66647,16.61176,Bed & Breakfast,PONTICELLO A SAN POTITO,AMABILE TRILLI,VIA SAN POTITO 55,Matera,159,,Italy,,2,42417
384,40.648251,16.6024079,Bed & Breakfast,PORTAPEPICE,ALDO URGO,CONTRADA CHIANCALATA,Matera,103,879,Italy,,2,42528
385,40.6667908,16.6101923,Bed & Breakfast,I SAN GENNARO  b & B,DI BENEDETTO FRANCO,VIA SAN GENNARO 24,Matera,,,Italy,,6,37937
386,40.6721108,16.6022857,Bed & Breakfast,ROOMS MATERA,NICOLA PLASMATI,VIA ANNUNZIATELLA  147,Matera,71,708,Italy,30,4,42401
387,40.6668635,16.6128911,Bed & Breakfast,SAN POTITO,GAUDIANO FRANCESCA,via San Potito 10,Matera,159,1255,Italy,12,,38764
388,40.6678407,16.6091579,Bed & Breakfast,SAN ROCCO,STASI TERESA,via San Rocco 78,Matera,,,Italy,,2,39848
389,40.6643476,16.6115588,Bed & Breakfast,SASSOLINO,GRANDE GRAZIA,via Bruno Buozzi 180,Matera,159,3369,Italy,4,6,39562
395,40.6553849,16.5857851,Bed & Breakfast,VILLA RAFFY,LOPERFIDO MARIA RAFFAELLA,C.DA POZZO MISSEO,Matera,100,536,Italy,11,2,42537
396,40.6593082,16.6072331,Bed & Breakfast,ACCERASSOLE,VENEZIA FILOMENA,VIA P. VENA 85,Matera,103,418,Italy,,2,42624
397,40.6657398,16.6115226,Bed & Breakfast,UNO SGUARDO SUI SASSI,RONDINONE ANGELA,VICO SANTO STEFANO 90,Matera,72,156,Italy,11,3,42705
398,40.676691,16.599124,Bed & Breakfast,TRA I MULINI,MARCOSANO MARIA PIA,VIA MARCONI 121,Matera,159,4708,Italy,12,2,42722
399,40.6684906,16.5924608,Bed & Breakfast,DA ANNALISA,MELODIA ANNALISA,VIALE DELLA LIBERTA' 2,Matera,69,344,Italy,10,2,42788
401,40.6713,16.6051413,Bed & Breakfast,MEFITE DIMORA B&B,MICHELE FRASCELLA,VIA ANNUNZIATELLA 34,Matera,159,4037,Italy,5,6,42754
402,40.65795637,16.6118297,Bed & Breakfast,I LIKE MATERA,ANTONIO SACCO,VIA M. MORELLI 4,Matera,103,52,Italy,7,3,42838
404,40.673475,16.607125,Bed & Breakfast,DA LUCIANO,SANTARSIA ANNA MARIA,VIA CERERIE 4,Matera,72,139,Italy,75,4,42559
405,40.6657214,16.5938137,Bed & Breakfast,CASAMIA 2019,CONCETTA CASAMIA,VIA SANTA CATERINA DA SIENA 6,Matera,67,106,Italy,,4,42395
406,40.6677138,16.6078866,Bed & Breakfast,BED & BREAKFAST GIUSTO,FRANCESCO GIUSTO,VIA LAURA BATTISTA 15,Matera,159,3656,Italy,11,2,42859
407,40.667691,16.609197,Bed & Breakfast,HOPLITES,SIMONA LOPERFIDO,VIA SAN ROCCO 119,Matera,159,467,Italy,1,8,42863
408,40.6655016,16.603939,Bed & Breakfast,B & B AURELIA,MARIA ROSARIA LIANTONIO,VIA TORRACA  23,Matera,71,256,Italy,,6,42924
409,40.6710931,16.6086155,Bed & Breakfast,LA CORTE DEGLI ARTIGIANI,SACCO CLAUDIA,VIA SANTO STEFANO 26,Matera,159,2,Italy,28,,42944
410,40.6810388,16.6238437,Bed & Breakfast,IL CASALE VERDE,ROSANNA MATERA,C.DA PEDALE DELLA PALOMBA,Matera,53,266,Italy,7,3,42993
411,40.6674937,16.6045006,Bed & Breakfast,LE NOTTI SUI SASSI,FESTA COSIMO DAMIANO,VIA LUCANA 262,Matera,103,258,Italy,8,2,43045
412,40.6633785,16.6119767,Bed & Breakfast,UN POSTO A MALVE,SAPONARO LEONARDO ANTONIO,RIONE MALVE 23,Matera,159,2187,Italy,6,3,43071
413,40.6719431,16.6084047,Bed & Breakfast,IL PECCATO ORIGINALE,GIOVANNI AZZONE,VIA SANTO STEFANO 60,Matera,159,2892,Italy,1,5,43122
721,40.65935355,16.53170708,Bed & Breakfast,AL BORGO,SCARCIOLLA EUSTACHIO VINCENZO,via Tagliamento 2,Matera,65,2454,Italy,3,6,42775
722,40.668927,16.610487,Bed & Breakfast,DELLE VIRTU',GENCO MARIANNA,via Casale 63,Matera,,,Italy,,,38764
723,40.661286,16.611772,Bed & Breakfast,DOMINA SASSI ROOMS,MOLITERNI MARIA RAFFAELLA,via san francesco paolo vecchio 22/23,Matera,,,Italy,,6,42320
724,40.66313661,16.61166098,Bed & Breakfast,EN SUITE,EMMA ANNAGRAZIA MARIA,vico Confalone 2,Matera,159,2062,Italy,1,4,42000
725,40.64283712,16.62475767,Bed & Breakfast,SOLACIUM,CATALDO DI PEDE,via t. ricciardi 63,Matera,114,284,Italy,4,6,41117
726,40.664696,16.610535,Bed & Breakfast,1824 SASSO SCRITTO,RENZI VITTORIA,via Pennino 8/11,Matera,,,Italy,,2,38082
727,40.66895296,16.60682874,Bed & Breakfast,A CASA MIA,ANDREINA GUARINI,REC. MARIO PAGANO 5,Matera,159,4026,Italy,10,3,42277
728,40.66221453,16.59593366,Bed & Breakfast,AMOUSTACHE,MOSTACCI MICHELE,VIA PASSARELLI 137 BIS,Matera,101,656,Italy,9,4,42532
729,40.658075,16.59654967,Bed & Breakfast,BAGNI DEL SOLE,DISIMINE ROSARIA,CONTRADA SGARRONE,Matera,101,543,Italy,1,5,42066
730,40.66710283,16.61085431,Bed & Breakfast,CAPRIOTTI,CAPRIOTTI OLIVIO,via gradoni Duomo 23-28,Matera,159,1113,Italy,,6,38855
731,40.64744124,16.62839323,Bed & Breakfast,CASALE DELLE PIANE,DI PEDE GIUSEPPE,C.DA AGNA LE PIANE,Matera,107,320,Italy,4,4,42433
732,40.6809587,16.57461036,Bed & Breakfast,CASAMIA2019,CASAMIA CONCETTA,VIA TERENZIO 11,Matera,67,106,Italy,16,,42439
733,40.668139,16.604026,Bed & Breakfast,CENTRALE,MATTEI MARCO,VICO VI NOVEMBRE,Matera,,,Italy,,2,39063
734,40.65183926,16.6178548,Bed & Breakfast,DAL VECCHIO FRANTOIO,FRACCALVIERI FELICIANA,REC MONTESCAGLIOSO 15,Matera,105,15,Italy,32,2,42531
735,40.68834072,16.57575739,Bed & Breakfast,DALIA,PERRONE PIETRO,REC II PAOLO BORSELLINO 8,Matera,51,2772,Italy,31,5,42516
736,40.65312437,16.61797428,Bed & Breakfast,DANY'S HOUSE,EMANUELE PAPAPIETRO,via Cappuccini 32,Matera,105,98,Italy,5,4,38908
737,40.661288,16.611783,Bed & Breakfast,DOMINA SASSI,MOLITERNI RAFFAELLA,VIA CASALNUOVO 90,Matera,,,Italy,,6,42320
738,40.64468926,16.62465384,Bed & Breakfast,DOMUS ANGELA,VENEZIA PIERFRANCESCO,VIA T. RICCIARDI 13/3,Matera,106,273,Italy,6,2,42227
739,40.66698282,16.60804635,Bed & Breakfast,DONNA LINA,LASCARO ANGELA,VICO FORNACI VECCHIE 7.8.9,Matera,159,580,Italy,8,7,42159
740,40.68791918,16.58735956,Bed & Breakfast,DUE CUORI E UN B&B,FILOMENA FABRIZIO,VIA DEI MESSAPI 41,Matera,51,433,Italy,12,2,42535
741,40.65990805,16.61155216,Bed & Breakfast,FORTUNATO,SANTOCHIRICO EUSTACHIO,VIA GIUSTINO FORTUNATO  9,Matera,103,240,Italy,19,4,42417
742,40.67503422,16.59834565,Bed & Breakfast,I DUE ARCHI,GIULIO FABRIZIO,via gobetti 51/A,Matera,159,4772,Italy,17,3,41970
743,40.673471,16.607093,Bed & Breakfast,IL CIELO SUI SASSI,LAURA LUONGO,VIA CERERIE 4/B,Matera,72,34,Italy,9,3,42808
744,40.66580356,16.61094328,Bed & Breakfast,IL COLLE DELLA CIVITA,NICOLETTI DOMENICO,REC.CASTELVECCHIO 5,Matera,159,1524,Italy,9,3,42580
745,40.68894805,16.58609007,Bed & Breakfast,IL GIARDINO DI ITALIA,ISABELLA GUARINI,VIA DEI MESSAPI 25 BIS,Matera,28,889,Italy,4,3,42277
746,40.6690902,16.60372212,Bed & Breakfast,IL GIGLIO DEI SASSI,MANICONE ANNA,VIA L. PROTOSPATA  37,Matera,71,1053,Italy,,2,42592
747,40.64575826,16.6193574,Bed & Breakfast,IL GIRASOLE,CAPPIELLO ANNA MARIA,REC. MASTRONARDI 2/e,Matera,106,879,Italy,1,3,42297
748,40.65648624,16.58825676,Bed & Breakfast,IL PIZZOCANNICCHIO,RIBECCO ANNA MARIA,CONTRADA PIZZOCANNICCHIO,Matera,100,519,Italy,3,4,42338
750,40.6463614,16.62193795,Bed & Breakfast,LA CASA DI ANNA,ANNA MARIA MANICONE,VIA RUTIGLIANO 5,Matera,106,179,Italy,8,7,42495
751,40.68045914,16.58187237,Bed & Breakfast,LA DOLCE NOTTE,IANNARELLA SARA,VIA VIRGILIO 5,Matera,68,717,Italy,64,4,42696
752,40.6698641,16.60752316,Bed & Breakfast,LA FORMICA,MONICA IMBREA,VIA F. PAOLO VOLPE 6,Matera,159,3472,Italy,4,6,42067
753,40.64444282,16.62350028,Bed & Breakfast,LA SPECCHIA,BELISARIO CIFARELLI,VIA TEODORO RICCIARDI 8,Matera,106,580,Italy,12,2,42301
754,40.6635927,16.53448672,Bed & Breakfast,L'ANTICO BORGO,ROSSELLA FERRARONI,VIA DONATO DONATELLO 1 D,Matera,65,1434,Italy,6,4,42550
755,40.666617,16.608589,Bed & Breakfast,LE RONDINELLE,ALESSANDRO SACCO,rec.1¯ Fiorentini 1-2,Matera,,,Italy,,6,41446
756,40.67259074,16.60518062,Bed & Breakfast,MATERA  CITY,SANTARCANGELO GIUSEPPE,VIA GIOLITTI 25,Matera,159,3620,Italy,12,2,41207
757,40.66809855,16.60845482,Bed & Breakfast,ANIMA PIETRA SUITE,GROSSI FRANCESCO PAOLO,PIAZZA SAN BIAGIO 3,Matera,159,2759,Italy,6,2,42473
758,40.696678,16.585586,Bed & Breakfast,PINETA PADUCCI,PADULA FRANCESCO,contrada Serra Paducci,Matera,,,Italy,,4,39100
759,40.65509,16.586411,Bed & Breakfast,POZZO MISSEO,GIUSEPPE PAOLICELLI,contrada Pozzo Misseo s.n.c.,Matera,,,Italy,,6,38814
760,40.68341255,16.5868605,Bed & Breakfast,PRESIDENT'S HOME,MARCELLA A. CASAMASSIMA,VIA DEGLI AUSONI 8,Matera,51,206,Italy,15,4,42180
764,40.6702249,16.60851939,Bed & Breakfast,TERRAZZA SUI SASSI,MANCINO MICHELE,VIA PIAVE 35,Matera,159,3575,Italy,18,6,40584
766,40.6693583,16.60364721,Bed & Breakfast,B&B PAPAPIETRO,PAPAPIETRO PASQUALE,VIA LUPO PROTOSPATA 37,Matera,71,1147,Italy,8,4,42722
767,40.66039618,16.6119212,Bed & Breakfast,HISTORY,FESTA ANTONELLA,VIA LUCANA 278,Matera,103,42,Italy,5,4,42712
768,40.66120131,16.61231107,Bed & Breakfast,SISTER'S IN LOVE,GIASI GIUSEPPE,REC 5°LUCANO 11,Matera,159,2538,Italy,17,2,42908
769,40.66585784,16.6079427,Bed & Breakfast,B & B AL VICO,NOTARO ANDREA,VICO SAN GIUSEPPE.31/33,Matera,159,678,Italy,22,4,42880
770,40.66969542,16.60461049,Bed & Breakfast,b & b GREEN,MARIA CRISTINA FERRO,VIA L. PROTOSPATA 50,Matera,159,5041,Italy,14,3,42942
771,40.66566294,16.53338153,Bed & Breakfast,ARON,LOPONTE DOMENICA MARIA,VIALE MANTEGNA ANDREA 104,Matera,65,1875,Italy,5,4,42881
772,40.67046031,16.60299811,Bed & Breakfast,B & B ORLANDO,ORLANDO MASSIMILIANO,VIA L. PROTOSPATA 74,Matera,71,861,Italy,27,6,42900
773,40.67873024,16.57594518,Bed & Breakfast,B&B ELIDE,DI PEDE ROSALBA,VIA TARANTO 12,Matera,67,2593,Italy,9,4,43011
774,40.65948644,16.61217075,Bed & Breakfast,CASA CRISTALLO,VALENTINA CRISTALLO,VIA G. FORTUNATO 39 piano terra,Matera,103,310,Italy,,4,43027
775,40.64510975,16.61730378,Bed & Breakfast,DONNA NICLA MATERA,ALBANESE ANDREA PIETRO GIOVANNI,VIA TURI 50,Matera,113,187,Italy,4,6,43033
776,40.66767806,16.60985483,Bed & Breakfast,B & B DA IDA,IDA IMMACOLATA RICCARDO,VIA SAN GENNARO VECCHIO 66,Matera,159,297,Italy,4,8,42530
778,40.66560544,16.61189422,Bed & Breakfast,CORTE DEI VENTI,SERENA ALTIERI,VIA SAN GIACOMO 20,Matera,159,1599,Italy,4,4,42444
779,40.67165705,16.60363538,Bed & Breakfast,ANNUNZIATELLA 95,MARIA CRISTINA PARENTE,VIA ANNUNZIATELLA 95,Matera,71,594,Italy,16,4,42424
781,40.66559168,16.61182226,Bed & Breakfast,SOLOSUD,PAOLA DE DONNO,VIA SAN GIACOMO 16 17 18,Matera,159,1598,Italy,3,7,42431
783,40.6625417,16.61029961,Bed & Breakfast,DIMORA LANFRANCHI,MARCELLO CORONELLA,VIA CASALNUOVO 8,Matera ,159,3249,Italy,8,2,42431
784,40.64994866,16.62098773,Bed & Breakfast,SANT'AGNESE,SANTARSIA CHIARA,VIA FRANCESCO NATALE FARINA1,Matera,106,1015,Italy,2,2,42481
785,40.64593007,16.62160009,Bed & Breakfast,CASA AZUL,CLAUDIA PENTASUGLIA,VIA MONS. CAVALLA 10,Matera,106,373,Italy,13,4,42529
786,40.6864277,16.57778443,Bed & Breakfast,GIADA,BELLAROSA ROSA,VIA NINO ROTA 298,Matera,51,2863,Italy,19,2,42431
788,40.6845307,16.58651745,Bed & Breakfast,A CASA DI BRUNA,STIFANO BRUNA,VIA DEI BRUZZI 66,Matera,51,601,Italy,3,3,42178
789,40.66502674,16.60469011,Bed & Breakfast,B & B IL TRAMONTANO,PERRONE LEONARDO,VICO GRAMSCI 2,Matera,71,266,Italy,43,2,42362
790,40.66760618,16.6094309,Bed & Breakfast,TERRA  MATER,FABRIZIO VINCENZO,VIA SAN ROCCO 50,Matera,159,340,Italy,13,3,42608
791,40.66806028,16.60803122,Bed & Breakfast,TERRA LUCANA B&B,DIMASTRODONATO GIANLUCA,vico xx settembre 58,Matera,159,4895,Italy,2,6,42838
793,40.66422022,16.61233328,Bed & Breakfast,LA CORTE DEI PASTORI,GIORDANO DOMENICO,VIA BRUNO BUOZZI 4,Matera,159,2146,Italy,3,8,40886
798,40.66441944,16.61202094,Bed & Breakfast,TERRAZZA CASA MIA,ROSSELLA TOSTO,P.TTA S. P. CAVEOSO 10,Matera,159,2139,Italy,7,2,43075
800,40.66013145,16.6030351,Bed & Breakfast,L'ABBABBIO,SERGIO FADINI,VIA DELLA QUERCIA 6,Matera,101,303,Italy,6,2,43181
801,40.67031207,16.60803974,Bed & Breakfast,LA STANZA SUI SASSI,ARIANNA MONTEMURRO,VIA G. PENTASUGLIA 11,Matera,159,3604,Italy,17,2,43180
802,40.6475616,16.61861613,Bed & Breakfast,B&B GREEN DI MARIA,MARIA CLEMENTE,VIA RAUL PAPINI 3,Matera,106,199,Italy,5,5,43187
803,40.69790575,16.58212203,Bed & Breakfast,VILLA OASI,COLAVITO FEDERICA,C.DA SERRA PADUCCI,Matera,30,483,Italy,2,3,43188
804,40.67021539,16.59636516,Bed & Breakfast,LA TUA CASA A MATERA,ILVENTO PORZIA,VIA LAZAZZERA 20,Matera,71,1925,Italy,34,3,43207
805,40.66187879,16.60902791,Bed & Breakfast,LA PECORA NERA,BURGI COSIMO,VIA CHIANCALATA 4-6,Matera,103,139,Italy,11,5,43201
806,40.66258991,16.61135829,Bed & Breakfast,IL PALAZZOTTO DEL CAVEOSO,SPAGNUOLO ANGELO RAFFAELE,VIA B. BUOZZI 39,Matera,159,1964,Italy,2,2,43224
807,40.66288036,16.61101668,Bed & Breakfast,SLOW LIVING,VEZZOLI DANIELE,VIA SAN F. PAOLO VECCHIO 22-23,Matera,159,2004,Italy,4,6,43229
808,40.67031207,16.60803974,Bed & Breakfast,LA STANZA SUI SASSI,ARIANNA MONTEMURRO,VIA G. B. PENTASUGLIA 11,Matera,159,3604,Italy,17,2,43180
809,40.64324121,16.62494136,Bed & Breakfast,VILLA ALBA,DARTIZIO ROSALBA,VIA T. RICCIARDI 53,Matera,114,259,Italy,3,4,43085
810,40.66532461,16.61034031,Bed & Breakfast,PALAZZO BERNARDINI,PARTIPILO PAPALIA ANNA ROSA,VIA ARCO DEL SEDILE 9,Matera,159,1497,Italy,9,8,43285
811,40.63820305,16.62320906,Bed & Breakfast,B&B ZERO,MANNARELLA SAVERIO MARIA,CONTRADA AGNA SENZA NUMERO CIVICO,Matera,114,1075,Italy,2,7,43279
812,40.66751546,16.60957076,Bed & Breakfast,B & B A DUE PASSI,ANDRISANI FRANCESCO PAOLO,VIA SAN GIOVANNI VECCHIO 35,Matera,159,326,Italy,4,3,43308
813,40.67636917,16.59623466,Bed & Breakfast,CASA MADDALENA DUE,PERSIA GRAZIELLA,VIA VINCENZO PIZZILLI 5,Matera,159,5031,Italy,8,3,43315
814,40.6691528,16.60137467,Bed & Breakfast,LE COLOMBINE,EPIFANIA VALENTINA,VIA DANTE 10,Matera,71,879,Italy,10,4,43348
819,40.66961,16.608905,Bed & Breakfast,MIKASA,PISCIOTTA VITO MICHELE,VIA SANTA CESAREA 15,Matera,159,47,Italy,43,2,43388
820,40.667059,16.604351,Bed & Breakfast,ALL'ANGOLO,SPADA FULVIO,VIA LUCANA 64,Matera,71,198,Italy,35,8,43265
821,40.637225,16.63143,Bed & Breakfast,LE DIMORE ALL'OFRA,RIMEDIO MARIA TERESA,CONTRADA SANT'ANGELO,Matera,114,928,Italy,,8,43399
822,40.659854,16.611347,Bed & Breakfast,DONNA GINA,DI CUIA NICOLA,VIA GIUSTINO FORTUNATO 7,Matera,103,224,Italy,14,4,43416
823,40.671348,16.608568,Bed & Breakfast,4U,GIOVE ERASMO,VIA SANTO STEFANO 41,Matera,159,2894,Italy,1,3,43438
824,40.668761,16.606013,Bed & Breakfast,XX SETTEMBRE,TRIPANI DOMENICO ANTONIO LUCA,VIA XX SETTEMBRE 45,Matera,159,4537,Italy,29,8,43444
825,40.672867,16.592737,Bed & Breakfast,NONNA GIULIA,BRUNO ANTONELLO,VIA DANTE ALIGHIERI 67 BIS,Matera,69,1600,Italy,15,4,43441
826,40.671951,16.60841,Bed & Breakfast,IL PECCATO ORIGINALE,AZZONE GIOVANNI,VIA SANTO STEFANO 60,Matera,159,2892,Italy,1,5,43122
827,40.659781,16.544787,Bed & Breakfast,VILLA MATER B&B,SCHIUMA GIOVANNI,VIA MONTICCHIO 1,Matera,65,863,Italy,3,4,43449
828,40.672549,16.607446,Bed & Breakfast,DIOMEDE,GIANNOLO ANNALISA,VIA GIUSEPPE GATTINI 49,Matera,159,3626,Italy,4,2,43453
829,40.681142,16.580851,Bed & Breakfast,LA CASA DI STEFANO,ORSI STEFANO,VIA VIRGILIO 5 -F-,Matera,68,1094,Italy,31,4,43452
830,40.661206,16.606776,Bed & Breakfast,ANNA SUITE ROOM B&B,CRISTIANO ANNA MARIA,VIA VINCENZO CAROPRESO 10,Matera,103,885,Italy,1,2,43476
831,40.636346,16.62225,Bed & Breakfast,B & B CUOREVERDE MATERA,IACONIS GIOVANNA,CONTRADELLA GIARDINETTO GRAVINELLA,Matera,134,178,Italy,1,4,43456
832,40.670446,16.607716,Bed & Breakfast,DIMORA CENTRALE,D'ALEMA FRANCESCO,VIA PENTASUGLIA 27,Matera,159,3006,Italy,7,4,43462
833,40.676722,16.578338,Bed & Breakfast,IL CANTAGALLO,ROSARIA ROSELLI,VIA TARANTO 41,Matera ,67,266,Italy,64,2,43497
834,40.66258,16.6114,Bed & Breakfast,IL PALAZZOTTO DEL CAVEOSO DUE,SPAGNUOLO GIUSEPPE,VIA SAN FRANCESCO PAOLO VECCHIO 2 E 3,Matera,159,1964,Italy,5,2,43564
835,40.66784,16.61056,Bed & Breakfast,GRADELLE SAN NICOLA,FESTA LUCA, GRADELLE SAN NICOLA DEL SOLE 13/15,Matera,159,961,Italy,4,4,43524
836,,,Bed & Breakfast,B&B IL CUCU',COMMISSO ELISABETTA,VIA CASALNUOVO 227,Matera,159,2883,Italy,3,5,43570